format  = 'OEF2.0'       ! file format
rectype = 'ML'           ! record type (1L/ML)
refsys  = ECLM J2000     ! default reference system
END_OF_HEADER
1862
! Equinoctial elements: a, e*sin(LP), e*cos(LP), tan(i/2)*sin(LN), tan(i/2)*cos(LN), mean long.
 EQU   1.4701327298395985E+00  -0.347997540699867   0.438628682970132    0.032422473920221    0.045038554581465 174.9957243776498
 MJD     54668.051354402 TDT
 MAG  16.060  0.090
! Non-grav parameters: model used, actual number in use, dimension, list of solve for parameters to be currently determined
 LSP   1  2    7    2
! Vector of dynamical parameters
 NGR   0.00000000000000E+00 -3.54489209652504E-05
! RMS    8.52769E-10   2.79074E-08   6.16744E-09   2.99067E-08   2.35322E-08   2.33827E-06   4.58635E-06
! EIG   7.88001E-11   6.53405E-10   1.17774E-09   1.34738E-08   3.18280E-08   3.74320E-08   4.58650E-06
! WEA   0.00002  -0.00359  -0.00059  -0.00140   0.00139  -0.00680   0.99997
 COV   7.272155241594742E-19  1.505413538956910E-17  3.738076045992485E-18
 COV  -1.202087517984028E-17  8.759489562335481E-18  7.007962406494071E-16
 COV   4.452978588858599E-16  7.788224635661079E-16  1.658140877104893E-16
 COV   7.319106994907526E-18  1.576498258377220E-16  6.172793148673647E-14
 COV  -7.556384360518820E-14  3.803728104505670E-17  7.657317382613525E-18
 COV   6.108558598404526E-17  1.239008137849976E-14 -1.233545346082030E-14
 COV   8.944134066248510E-16  3.266556332095765E-16  1.291671470914877E-14
 COV  -2.941784569285867E-14  5.537652587648481E-16  4.343931377816738E-15
 COV   2.927459562591345E-14  5.467515220393906E-12 -8.197187261110331E-12
 COV   2.103462743438190E-11
 NOR   1.581199623716963E+20 -1.706185677875953E+19  9.697989212346405E+18
 NOR  -1.462020248109079E+17  3.498917630077477E+17  1.467975300149996E+17
 NOR  -2.436834642417254E+15  3.129771935444791E+18 -1.706294207138897E+18
 NOR   3.394293824165810E+17 -4.070890346777718E+17 -2.958784958316737E+16
 NOR   1.147059509208834E+14  1.708621384260696E+18 -1.208153612973885E+17
 NOR   1.134895304276868E+17  1.409217718580270E+16 -1.681178022290603E+14
 NOR   8.702402632259418E+16 -1.014699864516316E+17 -3.713513862394458E+15
 NOR  -3.263363610983711E+13  1.227041100510537E+17  4.482543651347460E+15
 NOR   3.090307775334733E+13  2.884603495686383E+14 -1.526813929107768E+11
 NOR   2.644537504379394E+11
!MOID  0.02552    0
!NODES -0.11729  0.18607
